start=new Date('2022-12-01T00:00:00.000Z').valueOf();
sats=[{"OBJECT_ID":"2020-025Y","COUNTRY_CODE":"US","INCLINATION":"53.0569","OBJECT_NAME":"STARLINK-1323","MEAN_ANOMALY":"289.5005","REV_AT_EPOCH":"14392","PERIOD":"95.592","RA_OF_ASC_NODE":"52.4427","CENTER_NAME":"EARTH","TIME_SYSTEM":"UTC","EPOCH":"2022-11-30T09:47:55.407552","APOAPSIS":"548.183","SEMIMAJOR_AXIS":"6925.365","MEAN_MOTION_DDOT":"0.0000000000000","OBJECT_TYPE":"PAYLOAD","REF_FRAME":"TEME","ELEMENT_SET_NO":"999","NORAD_CAT_ID":"45553","CLASSIFICATION_TYPE":"U","MEAN_MOTION":"15.06394477","PERIAPSIS":"546.278","FILE":"3676429","RCS_SIZE":"LARGE","TLE_LINE1":"1 45553U 20025Y   22334.40828018  .00000365  00000-0  43416-4 0  9992","GP_ID":"219211941","TLE_LINE2":"2 45553  53.0569  52.4427 0001376  70.6133 289.5005 15.06394477143927","MEAN_MOTION_DOT":"0.00000365","ARG_OF_PERICENTER":"70.6133","BSTAR":"0.00004341600000","EPHEMERIS_TYPE":"0","MEAN_ELEMENT_THEORY":"SGP4","LAUNCH_DATE":"2020-04-22","DECAY_DATE":null,"SITE":"AFETR","ECCENTRICITY":"0.00013760"},{"ELEMENT_SET_NO":"999","NORAD_CAT_ID":"45554","REF_FRAME":"TEME","OBJECT_TYPE":"PAYLOAD","CLASSIFICATION_TYPE":"U","EPOCH":"2022-11-30T15:58:06.361824","MEAN_MOTION_DDOT":"0.0000000000000","SEMIMAJOR_AXIS":"6925.374","APOAPSIS":"548.459","MEAN_ANOMALY":"292.1519","PERIOD":"95.593","REV_AT_EPOCH":"14525","RA_OF_ASC_NODE":"51.2883","CENTER_NAME":"EARTH","TIME_SYSTEM":"UTC","COUNTRY_CODE":"US","OBJECT_ID":"2020-025Z","INCLINATION":"53.0589","OBJECT_NAME":"STARLINK-1325","DECAY_DATE":null,"LAUNCH_DATE":"2020-04-22","ECCENTRICITY":"0.00017620","SITE":"AFETR","MEAN_MOTION_DOT":"0.00001342","ARG_OF_PERICENTER":"67.9657","BSTAR":"0.00010897000000","TLE_LINE2":"2 45554  53.0589  51.2883 0001762  67.9657 292.1519 15.06391623145250","MEAN_ELEMENT_THEORY":"SGP4","EPHEMERIS_TYPE":"0","RCS_SIZE":"LARGE","FILE":"3676429","TLE_LINE1":"1 45554U 20025Z   22334.66535141  .00001342  00000-0  10897-3 0  9995","GP_ID":"219212689","MEAN_MOTION":"15.06391623","PERIAPSIS":"546.019"},{"MEAN_MOTION":"15.06404197","PERIAPSIS":"546.091","RCS_SIZE":"LARGE","FILE":"3675646","TLE_LINE1":"1 45555U 20025AA  22334.49673766  .00000809  00000-0  73225-4 0  9995","GP_ID":"219172635","TLE_LINE2":"2 45555  53.0573  52.0616 0001602  82.2506 277.8665 15.06404197145223","BSTAR":"0.00007322500000","MEAN_MOTION_DOT":"0.00000809","ARG_OF_PERICENTER":"82.2506","EPHEMERIS_TYPE":"0","MEAN_ELEMENT_THEORY":"SGP4","LAUNCH_DATE":"2020-04-22","DECAY_DATE":null,"SITE":"AFETR","ECCENTRICITY":"0.00016020","INCLINATION":"53.0573","OBJECT_ID":"2020-025AA","COUNTRY_CODE":"US","OBJECT_NAME":"STARLINK-1327","MEAN_ANOMALY":"277.8665","RA_OF_ASC_NODE":"52.0616","TIME_SYSTEM":"UTC","CENTER_NAME":"EARTH","PERIOD":"95.592","REV_AT_EPOCH":"14522","EPOCH":"2022-11-30T11:55:18.133824","APOAPSIS":"548.310","SEMIMAJOR_AXIS":"6925.336","MEAN_MOTION_DDOT":"0.0000000000000","OBJECT_TYPE":"PAYLOAD","REF_FRAME":"TEME","NORAD_CAT_ID":"45555","ELEMENT_SET_NO":"999","CLASSIFICATION_TYPE":"U"},{"LAUNCH_DATE":"2020-04-22","DECAY_DATE":null,"SITE":"AFETR","ECCENTRICITY":"0.00015260","TLE_LINE2":"2 45556  53.0560  52.4613 0001526  74.9963 285.1195 15.06388253145214","BSTAR":"0.00010361000000","MEAN_MOTION_DOT":"0.00001262","ARG_OF_PERICENTER":"74.9963","EPHEMERIS_TYPE":"0","MEAN_ELEMENT_THEORY":"SGP4","RCS_SIZE":"LARGE","FILE":"3676429","TLE_LINE1":"1 45556U 20025AB  22334.40459465  .00001262  00000-0  10361-3 0  9990","GP_ID":"219213680","MEAN_MOTION":"15.06388253","PERIAPSIS":"546.193","OBJECT_TYPE":"PAYLOAD","REF_FRAME":"TEME","NORAD_CAT_ID":"45556","ELEMENT_SET_NO":"999","CLASSIFICATION_TYPE":"U","EPOCH":"2022-11-30T09:42:36.977760","APOAPSIS":"548.306","MEAN_MOTION_DDOT":"0.0000000000000","SEMIMAJOR_AXIS":"6925.385","MEAN_ANOMALY":"285.1195","TIME_SYSTEM":"UTC","RA_OF_ASC_NODE":"52.4613","CENTER_NAME":"EARTH","PERIOD":"95.593","REV_AT_EPOCH":"14521","INCLINATION":"53.0560","COUNTRY_CODE":"US","OBJECT_ID":"2020-025AB","OBJECT_NAME":"STARLINK-1334"},{"COUNTRY_CODE":"US","OBJECT_ID":"2020-025AC","INCLINATION":"53.0551","OBJECT_NAME":"STARLINK-1336","MEAN_ANOMALY":"270.1734","PERIOD":"95.592","REV_AT_EPOCH":"14524","RA_OF_ASC_NODE":"51.5372","TIME_SYSTEM":"UTC","CENTER_NAME":"EARTH","EPOCH":"2022-11-30T14:39:49.057344","SEMIMAJOR_AXIS":"6925.339","MEAN_MOTION_DDOT":"0.0000000000000","APOAPSIS":"548.190","ELEMENT_SET_NO":"999","NORAD_CAT_ID":"45557","REF_FRAME":"TEME","OBJECT_TYPE":"PAYLOAD","CLASSIFICATION_TYPE":"U","MEAN_MOTION":"15.06403277","PERIAPSIS":"546.217","FILE":"3676429","RCS_SIZE":"LARGE","GP_ID":"219212440","TLE_LINE1":"1 45557U 20025AC  22334.61098446  .00000988  00000-0  85220-4 0  9993","MEAN_MOTION_DOT":"0.00000988","BSTAR":"0.00008522000000","ARG_OF_PERICENTER":"89.9418","TLE_LINE2":"2 45557  53.0551  51.5372 0001424  89.9418 270.1734 15.06403277145245","MEAN_ELEMENT_THEORY":"SGP4","EPHEMERIS_TYPE":"0","DECAY_DATE":null,"LAUNCH_DATE":"2020-04-22","ECCENTRICITY":"0.00014240","SITE":"AFETR"},{"SEMIMAJOR_AXIS":"6925.386","MEAN_MOTION_DDOT":"0.0000000000000","APOAPSIS":"548.281","EPOCH":"2022-11-30T15:27:37.360224","CLASSIFICATION_TYPE":"U","NORAD_CAT_ID":"45558","ELEMENT_SET_NO":"999","OBJECT_TYPE":"PAYLOAD","REF_FRAME":"TEME","OBJECT_NAME":"STARLINK-1342","OBJECT_ID":"2020-025AD","COUNTRY_CODE":"US","INCLINATION":"53.0554","PERIOD":"95.593","REV_AT_EPOCH":"14524","CENTER_NAME":"EARTH","RA_OF_ASC_NODE":"51.3947","TIME_SYSTEM":"UTC","MEAN_ANOMALY":"295.7460","MEAN_ELEMENT_THEORY":"SGP4","EPHEMERIS_TYPE":"0","MEAN_MOTION_DOT":"0.00000063","ARG_OF_PERICENTER":"64.3683","BSTAR":"0.00002311700000","TLE_LINE2":"2 45558  53.0554  51.3947 0001488  64.3683 295.7460 15.06387847145249","ECCENTRICITY":"0.00014880","SITE":"AFETR","DECAY_DATE":null,"LAUNCH_DATE":"2020-04-22","PERIAPSIS":"546.220","MEAN_MOTION":"15.06387847","TLE_LINE1":"1 45558U 20025AD  22334.64418241  .00000063  00000-0  23117-4 0  9997","GP_ID":"219212190","RCS_SIZE":"LARGE","FILE":"3676429"},{"TLE_LINE2":"2 45559  53.0564  51.4804 0001396  64.4958 295.6175 15.06386255145242","MEAN_MOTION_DOT":"0.00001555","BSTAR":"0.00012331000000","ARG_OF_PERICENTER":"64.4958","EPHEMERIS_TYPE":"0","MEAN_ELEMENT_THEORY":"SGP4","LAUNCH_DATE":"2020-04-22","DECAY_DATE":null,"SITE":"AFETR","ECCENTRICITY":"0.00013960","MEAN_MOTION":"15.06386255","PERIAPSIS":"546.289","FILE":"3676429","RCS_SIZE":"LARGE","TLE_LINE1":"1 45559U 20025AE  22334.61005452  .00001555  00000-0  12331-3 0  9993","GP_ID":"219212941","EPOCH":"2022-11-30T14:38:28.710528","APOAPSIS":"548.222","SEMIMAJOR_AXIS":"6925.391","MEAN_MOTION_DDOT":"0.0000000000000","REF_FRAME":"TEME","OBJECT_TYPE":"PAYLOAD","ELEMENT_SET_NO":"999","NORAD_CAT_ID":"45559","CLASSIFICATION_TYPE":"U","INCLINATION":"53.0564","COUNTRY_CODE":"US","OBJECT_ID":"2020-025AE","OBJECT_NAME":"STARLINK-1344","MEAN_ANOMALY":"295.6175","TIME_SYSTEM":"UTC","RA_OF_ASC_NODE":"51.4804","CENTER_NAME":"EARTH","REV_AT_EPOCH":"14524","PERIOD":"95.593"},{"MEAN_ANOMALY":"286.3616","PERIOD":"95.592","REV_AT_EPOCH":"14476","CENTER_NAME":"EARTH","RA_OF_ASC_NODE":"42.1829","TIME_SYSTEM":"UTC","OBJECT_ID":"2020-025AF","COUNTRY_CODE":"US","INCLINATION":"53.0563","OBJECT_NAME":"STARLINK-1346","ELEMENT_SET_NO":"999","NORAD_CAT_ID":"45560","OBJECT_TYPE":"PAYLOAD","REF_FRAME":"TEME","CLASSIFICATION_TYPE":"U","EPOCH":"2022-11-30T11:12:47.917728","MEAN_MOTION_DDOT":"0.0000000000000","SEMIMAJOR_AXIS":"6925.344","APOAPSIS":"548.281","FILE":"3675850","RCS_SIZE":"LARGE","TLE_LINE1":"1 45560U 20025AF  22334.46722127  .00001706  00000-0  13337-3 0  9998","GP_ID":"219179375","MEAN_MOTION":"15.06401603","PERIAPSIS":"546.137","DECAY_DATE":null,"LAUNCH_DATE":"2020-04-22","ECCENTRICITY":"0.00015480","SITE":"AFETR","MEAN_MOTION_DOT":"0.00001706","BSTAR":"0.00013337000000","ARG_OF_PERICENTER":"73.7543","TLE_LINE2":"2 45560  53.0563  42.1829 0001548  73.7543 286.3616 15.06401603144767","MEAN_ELEMENT_THEORY":"SGP4","EPHEMERIS_TYPE":"0"},{"MEAN_ELEMENT_THEORY":"SGP4","EPHEMERIS_TYPE":"0","MEAN_MOTION_DOT":"0.00027749","BSTAR":"0.00121860000000","ARG_OF_PERICENTER":"58.5870","TLE_LINE2":"2 45561  53.0572 309.6093 0005736  58.5870 301.5686 15.21736640146666","ECCENTRICITY":"0.00057360","SITE":"AFETR","DECAY_DATE":null,"LAUNCH_DATE":"2020-04-22","PERIAPSIS":"496.659","MEAN_MOTION":"15.21736640","TLE_LINE1":"1 45561U 20025AG  22334.41112216  .00027749  00000-0  12186-2 0  9991","GP_ID":"219171635","FILE":"3675646","RCS_SIZE":"LARGE","MEAN_MOTION_DDOT":"0.0000000000000","SEMIMAJOR_AXIS":"6878.739","APOAPSIS":"504.550","EPOCH":"2022-11-30T09:52:00.954624","CLASSIFICATION_TYPE":"U","ELEMENT_SET_NO":"999","NORAD_CAT_ID":"45561","REF_FRAME":"TEME","OBJECT_TYPE":"PAYLOAD","OBJECT_NAME":"STARLINK-1348","INCLINATION":"53.0572","COUNTRY_CODE":"US","OBJECT_ID":"2020-025AG","CENTER_NAME":"EARTH","RA_OF_ASC_NODE":"309.6093","TIME_SYSTEM":"UTC","PERIOD":"94.629","REV_AT_EPOCH":"14666","MEAN_ANOMALY":"301.5686"},{"EPOCH":"2022-11-30T11:44:41.525664","APOAPSIS":"548.291","SEMIMAJOR_AXIS":"6925.356","MEAN_MOTION_DDOT":"0.0000000000000","REF_FRAME":"TEME","OBJECT_TYPE":"PAYLOAD","NORAD_CAT_ID":"45562","ELEMENT_SET_NO":"999","CLASSIFICATION_TYPE":"U","OBJECT_ID":"2020-025AH","COUNTRY_CODE":"US","INCLINATION":"53.0564","OBJECT_NAME":"STARLINK-1354","MEAN_ANOMALY":"289.9407","PERIOD":"95.592","REV_AT_EPOCH":"14462","RA_OF_ASC_NODE":"52.0698","CENTER_NAME":"EARTH","TIME_SYSTEM":"UTC","TLE_LINE2":"2 45562  53.0564  52.0698 0001544  70.1748 289.9407 15.06397456144620","MEAN_MOTION_DOT":"0.00000266","BSTAR":"0.00003676400000","ARG_OF_PERICENTER":"70.1748","EPHEMERIS_TYPE":"0","MEAN_ELEMENT_THEORY":"SGP4","LAUNCH_DATE":"2020-04-22","DECAY_DATE":null,"SITE":"AFETR","ECCENTRICITY":"0.00015440","MEAN_MOTION":"15.06397456","PERIAPSIS":"546.152","RCS_SIZE":"LARGE","FILE":"3675811","TLE_LINE1":"1 45562U 20025AH  22334.48936951  .00000266  00000-0  36764-4 0  9994","GP_ID":"219179044"}];
